ONEWEB-0645             
1 55809U 23029P   25128.68279134  .00000030  00000+0  42264-4 0  9995
2 55809  87.9259  25.4005 0001611  71.7200 288.4108 13.19725729105554
ONEWEB-0646             
1 55810U 23029Q   25128.71279487  .00000036  00000+0  56566-4 0  9998
2 55810  87.9259  25.3886 0001628  85.6884 274.4435 13.19726804105544
ONEWEB-0648             
1 55811U 23029R   25129.07917444 -.00000180  00000+0 -51917-3 0  9997
2 55811  87.9078  10.0956 0000852  69.9263 290.1959 13.14501004107015
ONEWEB-0649             
1 55812U 23029S   25128.67567042  .00000048  00000+0  87449-4 0  9999
2 55812  87.9257  25.3858 0001349  76.5883 283.5400 13.19728109105577
ONEWEB-0650             
1 55813U 23029T   25129.12583252 -.00000212  00000+0 -56310-3 0  9999
2 55813  87.9257  25.3054 0001669  82.7088 277.4234 13.19724699106294
ONEWEB-0652             
1 55814U 23029U   25129.06015379  .00000048  00000+0  95624-4 0  9990
2 55814  87.9078  10.1094 0001961  80.4415 279.6937 13.14502295106965
ONEWEB-0653             
1 55815U 23029V   25128.73983203  .00000278  00000+0  71500-3 0  9995
2 55815  87.9079  10.1615 0001933  75.5876 284.5468 13.14501701106269
ONEWEB-0654             
1 55816U 23029W   25128.73507200  .00000248  00000+0  63552-3 0  9990
2 55816  87.9077  10.1639 0002213  78.9308 281.2071 13.14501527106285
